GOES 1 (SMS-C)          
1 08366U 75100A   26094.21768802  .00000028  00000+0  00000+0 0  9999
2 08366   4.7961 278.3860 0004745   2.5067 225.9204  1.00244469184328
GOES 2                  
1 10061U 77048A   26094.17992649 -.00000034  00000+0  00000+0 0  9998
2 10061   6.5965 293.9871 0013722  51.5621 290.2118  0.99399494 45531
GOES 3                  
1 10953U 78062A   26094.18755319  .00000095  00000+0  00000+0 0  9993
2 10953   7.0701 299.8524 0002123   7.1745  10.4406  0.99358267127808
GOES 4                  
1 11964U 80074A   26094.21433330 -.00000070  00000+0  00000+0 0  9996
2 11964   8.1459 303.5193 0032691 104.4974  53.6164  0.99232811126700
GOES 5                  
1 12472U 81049A   26094.58514463 -.00000157  00000+0  00000+0 0  9997
2 12472   9.4911 316.1510 0004097 342.9567   8.6846  1.00206582122107
GOES 6                  
1 14050U 83041A   26094.22464667 -.00000039  00000+0  00000+0 0  9995
2 14050  10.3094 321.7098 0001716 311.2483 245.0675  1.00220841215270
GOES 7                  
1 17561U 87022A   26094.42684082  .00000000  00000+0  00000+0 0  9992
2 17561  12.9934 338.1585 0004058  24.8650 168.6782  0.99907334126220
GOES 8                  
1 23051U 94022A   26093.98239034 -.00000113  00000+0  00000+0 0  9990
2 23051  14.3674  14.2407 0005851  25.8156 163.3379  0.98906605123395
GOES 9                  
1 23581U 95025A   26094.52360547 -.00000164  00000+0  00000+0 0  9993
2 23581  13.8983  15.0896 0002777 195.7774 285.3709  0.98799732112030
GOES 10                 
1 24786U 97019A   26094.15947685 -.00000261  00000+0  00000+0 0  9997
2 24786  13.0402  21.6274 0030022 239.6985 317.4901  0.99127384105330
GOES 11                 
1 26352U 00022A   26093.20799413 -.00000285  00000+0  00000+0 0  9991
2 26352  11.6444  47.1551 0005087 263.0696 108.2584  0.99045354 51738
GOES 12                 
1 26871U 01031A   26094.56703120 -.00000203  00000+0  00000+0 0  9998
2 26871  12.0527  37.8809 0008476 302.3959 229.5798  0.99140752 90035
EWS-G1 (GOES 13)        
1 29155U 06018A   26094.02247587  .00000018  00000+0  00000+0 0  9990
2 29155   4.3411  77.3073 0061909 274.9680 293.3718  0.98784884 42516
GOES 14                 
1 35491U 09033A   26094.19141847  .00000049  00000+0  00000+0 0  9994
2 35491   1.4992  83.9394 0001823 295.6803  65.2070  1.00111592  5849
EWS-G2 (GOES 15)        
1 36411U 10008A   26094.18876654  .00000022  00000+0  00000+0 0  9992
2 36411   1.0837  84.3159 0003299  17.6509 221.7739  1.00271551 58890
GOES 16                 
1 41866U 16071A   26094.22681335 -.00000091  00000+0  00000+0 0  9990
2 41866   0.1738  85.2990 0001871 245.6791 198.5207  1.00272227 34361
GOES 17                 
1 43226U 18022A   26094.22984669 -.00000183  00000+0  00000+0 0  9998
2 43226   0.7480  86.8133 0001221 256.8969 202.0833  1.00271726 29687
